{"type": "FeatureCollection", "features": [{"type": "Feature", "properties": {"pattern_id": "01f218f9a2e33b2a", "line": "173", "direction": "Petuelring -> Feldmoching", "trip_count": 213}, "geometry": {"type": "LineString", "coordinates": [[11.566609, 48.175396], [11.559746, 48.17633], [11.556808, 48.17874], [11.553772, 48.18339], [11.551481, 48.18666], [11.548921, 48.19162], [11.545624, 48.19692], [11.543342, 48.200428], [11.538743, 48.20383], [11.532805, 48.208878], [11.530461, 48.211475], [11.53073, 48.214928], [11.534925, 48.214558], [11.540603, 48.213886]]}}, {"type": "Feature", "properties": {"pattern_id": "04a144c706687f31", "line": "58", "direction": "Hauptbahnhof Nord -> Hauptbahnhof Nord", "trip_count": 287}, "geometry": {"type": "LineString", "coordinates": [[11.559216, 48.141376], [11.561794, 48.142376], [11.563662, 48.14546], [11.566106, 48.1481], [11.57084, 48.146732], [11.57552, 48.145367], [11.579167, 48.145668], [11.580955, 48.149406], [11.581871, 48.15142], [11.583704, 48.15533], [11.585087, 48.157078], [11.589372, 48.15655], [11.593415, 48.152565], [11.596253, 48.150146], [11.601239, 48.148777], [11.60883, 48.150494], [11.607994, 48.14827], [11.606557, 48.14436], [11.607024, 48.139145], [11.609405, 48.135796], [11.609521, 48.132057], [11.603943, 48.127934], [11.599002, 48.1251], [11.596478, 48.123833], [11.589965, 48.122395], [11.585186, 48.12102], [11.58321, 48.11873], [11.57967, 48.115967], [11.576544, 48.119106], [11.574801, 48.119785], [11.571118, 48.12123], [11.567076, 48.123425], [11.561542, 48.125313], [11.558515, 48.126747], [11.558569, 48.13007], [11.558075, 48.133217], [11.55609, 48.134678], [11.556072, 48.13887], [11.559216, 48.141376]]}}, {"type": "Feature", "properties": {"pattern_id": "04db97ae4eea5b5f", "line": "190", "direction": "Ostbahnhof Friedenstra\u00dfe -> Messestadt Ost", "trip_count": 180}, "geometry": {"type": "LineString", "coordinates": [[11.6075, 48.127148], [11.61024, 48.12532], [11.612288, 48.124683], [11.61925, 48.124596], [11.621981, 48.126705], [11.62305, 48.1301], [11.627973, 48.13125], [11.632051, 48.13092], [11.632545, 48.132748], [11.633641, 48.13584], [11.635204, 48.13822], [11.636902, 48.140297], [11.644079, 48.13992], [11.647493, 48.139782], [11.654823, 48.139797], [11.662738, 48.140446], [11.670158, 48.1397], [11.674092, 48.13968], [11.679976, 48.14036], [11.679141, 48.14335], [11.681342, 48.14104], [11.685627, 48.140873], [11.68922, 48.13841], [11.690181, 48.13518], [11.689516, 48.133514], [11.689408, 48.129433], [11.694583, 48.129475], [11.699802, 48.129482], [11.70247, 48.129536], [11.703889, 48.13345]]}}, {"type": "Feature", "properties": {"pattern_id": "053dabd90bcbd7df", "line": "166", "direction": "Kemptener Stra\u00dfe -> Forst-Kasten-Allee", "trip_count": 158}, "geometry": {"type": "LineString", "coordinates": [[11.484188, 48.07877], [11.485724, 48.081684], [11.483874, 48.083534], [11.478745, 48.0849], [11.479221, 48.08819], [11.480083, 48.088795], [11.480254, 48.088585], [11.481278, 48.093235], [11.480577, 48.095158], [11.477676, 48.095245]]}}, {"type": "Feature", "properties": {"pattern_id": "073e866c62126f13", "line": "160", "direction": "Dachstra\u00dfe -> Pasing", "trip_count": 81}, "geometry": {"type": "LineString", "coordinates": [[11.443315, 48.137924], [11.448004, 48.140404], [11.450286, 48.142063], [11.453161, 48.145607], [11.454185, 48.148083], [11.459296, 48.149197]]}}, {"type": "Feature", "properties": {"pattern_id": "0af5c920bbee794b", "line": "198", "direction": "Klara-Ziegler-Bogen -> Neuperlach Zentrum", "trip_count": 135}, "geometry": {"type": "LineString", "coordinates": [[11.661336, 48.083984], [11.66192, 48.086426], [11.661489, 48.090813], [11.654123, 48.094357], [11.654967, 48.096535], [11.652739, 48.097656], [11.648634, 48.098614], [11.647367, 48.10094]]}}, {"type": "Feature", "properties": {"pattern_id": "0ec8db5997712ff7", "line": "188", "direction": "Daglfing Bahnhof West -> St. Emmeram", "trip_count": 167}, "geometry": {"type": "LineString", "coordinates": [[11.648194, 48.14846], [11.643397, 48.14716], [11.6393, 48.14641], [11.636884, 48.146328], [11.632006, 48.146847], [11.627928, 48.147682], [11.624847, 48.148228], [11.622125, 48.14862], [11.616744, 48.148983], [11.609674, 48.150738], [11.612144, 48.15437], [11.614417, 48.156467], [11.616061, 48.158375], [11.619403, 48.161873], [11.621756, 48.16385], [11.623059, 48.165707], [11.624577, 48.169903], [11.627155, 48.172302], [11.628557, 48.17354], [11.630686, 48.176556]]}}, {"type": "Feature", "properties": {"pattern_id": "10d0afb92060df2e", "line": "191", "direction": "Ostbahnhof Friedenstra\u00dfe -> Zamilapark", "trip_count": 55}, "geometry": {"type": "LineString", "coordinates": [[11.6075, 48.127148], [11.61024, 48.12532], [11.612288, 48.124683], [11.61925, 48.124596], [11.621981, 48.126705], [11.62305, 48.1301], [11.627973, 48.13125], [11.632051, 48.13092], [11.632545, 48.132748], [11.633641, 48.13584], [11.635204, 48.13822], [11.636902, 48.140297], [11.644079, 48.13992], [11.64832, 48.140095], [11.649775, 48.142384]]}}, {"type": "Feature", "properties": {"pattern_id": "158e3662a8814918", "line": "175", "direction": "Olympia-Einkaufszentrum -> Ludwigsfeld (Campingplatz)", "trip_count": 77}, "geometry": {"type": "LineString", "coordinates": [[11.529113, 48.18214], [11.525565, 48.182056], [11.52137, 48.182297], [11.521226, 48.18592], [11.524469, 48.196392], [11.522385, 48.198902], [11.518711, 48.199238], [11.512728, 48.20049], [11.506251, 48.201847], [11.49734, 48.199]]}}, {"type": "Feature", "properties": {"pattern_id": "16c6b4a35ff6342d", "line": "183", "direction": "Arabellapark -> Messestadt West", "trip_count": 122}, "geometry": {"type": "LineString", "coordinates": [[11.62049, 48.153214], [11.620598, 48.15355], [11.623571, 48.15361], [11.628826, 48.153496], [11.637495, 48.15506], [11.641654, 48.15643], [11.64116, 48.153023], [11.640657, 48.150803], [11.640405, 48.14838], [11.63983, 48.146004], [11.638645, 48.14275], [11.636902, 48.140297], [11.644079, 48.13992], [11.647493, 48.139782], [11.654823, 48.139797], [11.662738, 48.140446], [11.670158, 48.1397], [11.674092, 48.13968], [11.679976, 48.14036], [11.685627, 48.140873], [11.68922, 48.13841], [11.690181, 48.13518], [11.689516, 48.133514]]}}, {"type": "Feature", "properties": {"pattern_id": "1880a89eb5f18049", "line": "139", "direction": "Klinikum Harlaching -> Messestadt West", "trip_count": 163}, "geometry": {"type": "LineString", "coordinates": [[11.556251, 48.08711], [11.559467, 48.088406], [11.56412, 48.09044], [11.569986, 48.09312], [11.573984, 48.094784], [11.577775, 48.09644], [11.581305, 48.097874], [11.582725, 48.098522], [11.586471, 48.0999], [11.59116, 48.10111], [11.596361, 48.10238], [11.596253, 48.107315], [11.59557, 48.110573], [11.596702, 48.10679], [11.603934, 48.10821], [11.604545, 48.105545], [11.607123, 48.10107], [11.610429, 48.101322], [11.616923, 48.10112], [11.62305, 48.100857], [11.630757, 48.09979], [11.636623, 48.099182], [11.637468, 48.103256], [11.640792, 48.104225], [11.646972, 48.10112], [11.647825, 48.10086], [11.646559, 48.106655], [11.646604, 48.10881], [11.649496, 48.11226], [11.65256, 48.114807], [11.655937, 48.11667], [11.66051, 48.119156], [11.666394, 48.123245], [11.663007, 48.125572], [11.667346, 48.12352], [11.670472, 48.121613], [11.674029, 48.126244], [11.676769, 48.129215], [11.679967, 48.13282], [11.684522, 48.13537], [11.690181, 48.13518], [11.689516, 48.133514]]}}, {"type": "Feature", "properties": {"pattern_id": "19737af9a38e7e65", "line": "193", "direction": "Von-Erckert-Stra\u00dfe -> Trudering", "trip_count": 278}, "geometry": {"type": "LineString", "coordinates": [[11.708884, 48.111652], [11.70512, 48.11239], [11.701024, 48.11339], [11.694834, 48.115833], [11.691106, 48.117504], [11.682923, 48.118683], [11.676248, 48.119587], [11.670984, 48.119804], [11.665307, 48.12132], [11.666394, 48.123245], [11.663007, 48.125572]]}}, {"type": "Feature", "properties": {"pattern_id": "1e924672e40949ae", "line": "139", "direction": "Messestadt West -> Klinikum Harlaching", "trip_count": 166}, "geometry": {"type": "LineString", "coordinates": [[11.690154, 48.13333], [11.689669, 48.135532], [11.684549, 48.135525], [11.679779, 48.132767], [11.676338, 48.128983], [11.673948, 48.12636], [11.67014, 48.121956], [11.667427, 48.123642], [11.663591, 48.125565], [11.666232, 48.123264], [11.660582, 48.119305], [11.655695, 48.116703], [11.652003, 48.114513], [11.649829, 48.1127], [11.646307, 48.108547], [11.646217, 48.106476], [11.646972, 48.10112], [11.647367, 48.10094], [11.639974, 48.104443], [11.636471, 48.10256], [11.635851, 48.099026], [11.630461, 48.100628], [11.622259, 48.100975], [11.616896, 48.101257], [11.610491, 48.101433], [11.60644, 48.101406], [11.605668, 48.10379], [11.603314, 48.10854], [11.596253, 48.107315], [11.595436, 48.110916], [11.596235, 48.1063], [11.596639, 48.102913], [11.5908, 48.101276], [11.585788, 48.099983], [11.582671, 48.098774], [11.580371, 48.097748], [11.577613, 48.09656], [11.573786, 48.09493], [11.569654, 48.09318], [11.562998, 48.090057], [11.559719, 48.088657], [11.556251, 48.08711]]}}, {"type": "Feature", "properties": {"pattern_id": "1f9a39ab31940d4c", "line": "50", "direction": "Dessauerstra\u00dfe -> Johanneskirchen", "trip_count": 278}, "geometry": {"type": "LineString", "coordinates": [[11.531601, 48.180733], [11.530173, 48.18245], [11.531431, 48.183857], [11.534144, 48.18691], [11.542462, 48.186188], [11.545759, 48.18607], [11.552379, 48.185936], [11.557895, 48.18638], [11.561982, 48.186733], [11.566797, 48.187134], [11.572583, 48.187126], [11.572699, 48.185852], [11.575358, 48.18434], [11.578574, 48.184177], [11.585159, 48.184265], [11.591232, 48.184067], [11.596568, 48.18292], [11.601535, 48.180546], [11.603233, 48.179737], [11.607832, 48.183468], [11.631153, 48.175976], [11.636534, 48.172943], [11.635024, 48.17003], [11.643639, 48.168396], [11.644663, 48.16934], [11.646209, 48.16845]]}}, {"type": "Feature", "properties": {"pattern_id": "1fe1348e52508293", "line": "53", "direction": "Aidenbachstra\u00dfe -> M\u00fcnchner Freiheit", "trip_count": 296}, "geometry": {"type": "LineString", "coordinates": [[11.524038, 48.09761], [11.523984, 48.09891], [11.524451, 48.101936], [11.529652, 48.10248], [11.532212, 48.10531], [11.534359, 48.109295], [11.533892, 48.113064], [11.536686, 48.116806], [11.540189, 48.1172], [11.540872, 48.12009], [11.541222, 48.121895], [11.540647, 48.125717], [11.539165, 48.127956], [11.53939, 48.131027], [11.53983, 48.133312], [11.537405, 48.135], [11.534144, 48.135265], [11.534422, 48.1363], [11.534808, 48.13971], [11.534898, 48.142532], [11.536614, 48.14673], [11.537108, 48.150085], [11.536264, 48.152008], [11.534251, 48.153164], [11.540558, 48.155663], [11.543298, 48.1572], [11.546972, 48.159184], [11.553961, 48.161404], [11.557599, 48.16138], [11.564318, 48.160877], [11.568073, 48.16111], [11.574074, 48.160397], [11.576868, 48.1626], [11.582195, 48.162437], [11.585797, 48.16186]]}}, {"type": "Feature", "properties": {"pattern_id": "26bfb21763afec0f", "line": "169", "direction": "Moosach -> Moosach", "trip_count": 171}, "geometry": {"type": "LineString", "coordinates": [[11.506035, 48.181114], [11.5014, 48.180576], [11.496145, 48.179504], [11.495822, 48.18193], [11.495965, 48.184086], [11.501014, 48.183506], [11.506107, 48.180775]]}}, {"type": "Feature", "properties": {"pattern_id": "29b04cb2d7cdf57f", "line": "188", "direction": "St. Emmeram -> Daglfing Bahnhof West", "trip_count": 166}, "geometry": {"type": "LineString", "coordinates": [[11.630443, 48.17643], [11.62844, 48.173645], [11.626203, 48.17183], [11.624415, 48.169903], [11.623634, 48.166588], [11.621972, 48.16463], [11.619232, 48.16198], [11.616447, 48.159027], [11.613752, 48.15593], [11.611363, 48.153824], [11.60883, 48.150494], [11.616708, 48.148796], [11.622771, 48.148376], [11.625871, 48.14786], [11.629167, 48.147243], [11.632141, 48.146667], [11.637585, 48.146183], [11.640594, 48.146385], [11.644097, 48.147137], [11.648697, 48.14852]]}}, {"type": "Feature", "properties": {"pattern_id": "29c9c7840da0c0c2", "line": "197", "direction": "Neuperlach Zentrum -> Neuperlach Zentrum", "trip_count": 257}, "geometry": {"type": "LineString", "coordinates": [[11.647861, 48.100956], [11.648876, 48.098408], [11.652658, 48.0974], [11.655704, 48.096504], [11.657357, 48.098766], [11.659117, 48.10176], [11.659207, 48.10382], [11.659189, 48.106445], [11.654868, 48.10922], [11.649389, 48.10923], [11.646864, 48.109222], [11.644232, 48.10923], [11.638905, 48.10924], [11.636381, 48.10658], [11.636471, 48.10256], [11.641492, 48.099426], [11.647403, 48.10104]]}}, {"type": "Feature", "properties": {"pattern_id": "29ce08e0be0b82f0", "line": "59", "direction": "Giesing -> Ackermannbogen", "trip_count": 293}, "geometry": {"type": "LineString", "coordinates": [[11.595678, 48.110664], [11.596702, 48.10679], [11.604814, 48.108536], [11.612692, 48.110424], [11.613761, 48.11569], [11.610357, 48.118587], [11.613124, 48.121494], [11.613303, 48.12446], [11.613654, 48.126488], [11.61563, 48.130142], [11.614929, 48.137226], [11.614848, 48.13941], [11.615396, 48.142693], [11.616331, 48.149143], [11.614705, 48.152718], [11.607284, 48.15614], [11.596855, 48.163322], [11.590603, 48.166546], [11.586192, 48.166786], [11.586632, 48.162334], [11.585024, 48.159397], [11.580551, 48.159973], [11.574092, 48.160507], [11.568172, 48.161224], [11.562584, 48.161034], [11.557599, 48.161472], [11.5537, 48.16146], [11.555065, 48.165012]]}}, {"type": "Feature", "properties": {"pattern_id": "2a0cfd772ffda289", "line": "50", "direction": "Johanneskirchen -> Dessauerstra\u00dfe", "trip_count": 287}, "geometry": {"type": "LineString", "coordinates": [[11.646209, 48.16845], [11.643352, 48.169014], [11.643145, 48.16793], [11.635348, 48.169918], [11.636848, 48.17286], [11.630686, 48.176556], [11.608093, 48.183735], [11.604158, 48.179886], [11.601257, 48.180916], [11.597511, 48.181236], [11.589821, 48.178894], [11.58506, 48.182034], [11.584198, 48.184357], [11.578934, 48.184284], [11.575385, 48.184464], [11.572843, 48.18603], [11.572115, 48.187645], [11.564704, 48.187183], [11.561767, 48.186974], [11.556323, 48.186478], [11.550448, 48.18618], [11.545687, 48.18631], [11.54063, 48.18661], [11.533362, 48.186764], [11.531395, 48.18416], [11.530371, 48.18202], [11.531601, 48.180733]]}}, {"type": "Feature", "properties": {"pattern_id": "2bb491b005dcfa09", "line": "160", "direction": "Blutenburg -> Waldfriedhof", "trip_count": 72}, "geometry": {"type": "LineString", "coordinates": [[11.457194, 48.164917], [11.464183, 48.164696], [11.467228, 48.1641], [11.466986, 48.161213], [11.466968, 48.15727], [11.466671, 48.15424], [11.462449, 48.15045], [11.464776, 48.1464], [11.461838, 48.14672], [11.459377, 48.149364], [11.454059, 48.148365], [11.453044, 48.14566], [11.450106, 48.142124], [11.448148, 48.140636], [11.44318, 48.13801], [11.4673, 48.114647], [11.471944, 48.11503], [11.47631, 48.11536], [11.483524, 48.11444], [11.487952, 48.113537], [11.495022, 48.1125], [11.5022, 48.11556], [11.501292, 48.11221]]}}, {"type": "Feature", "properties": {"pattern_id": "32718d4d6390b05f", "line": "198", "direction": "Neuperlach Zentrum -> Klara-Ziegler-Bogen", "trip_count": 153}, "geometry": {"type": "LineString", "coordinates": [[11.647403, 48.10104], [11.648876, 48.098408], [11.652658, 48.0974], [11.654985, 48.09601], [11.654455, 48.093884], [11.661318, 48.09071], [11.661803, 48.08646], [11.661336, 48.083984]]}}, {"type": "Feature", "properties": {"pattern_id": "33c468d9f3e25eed", "line": "181", "direction": "Studentenstadt -> Wallnerstra\u00dfe", "trip_count": 56}, "geometry": {"type": "LineString", "coordinates": [[11.608875, 48.184467], [11.615756, 48.190117], [11.621433, 48.1918], [11.624299, 48.195583], [11.626499, 48.199062], [11.629671, 48.204346], [11.631314, 48.207027], [11.633515, 48.21053]]}}, {"type": "Feature", "properties": {"pattern_id": "38734e1c44d0b7ba", "line": "193", "direction": "Trudering -> Von-Erckert-Stra\u00dfe", "trip_count": 281}, "geometry": {"type": "LineString", "coordinates": [[11.663591, 48.125565], [11.666232, 48.123264], [11.665145, 48.12111], [11.670499, 48.119564], [11.677398, 48.119324], [11.68401, 48.118267], [11.690963, 48.117332], [11.695724, 48.11516], [11.70141, 48.11302], [11.704931, 48.11223], [11.709836, 48.11122]]}}, {"type": "Feature", "properties": {"pattern_id": "3f460c10e9119e23", "line": "150", "direction": "Bremer Stra\u00dfe -> Arabellapark", "trip_count": 78}, "geometry": {"type": "LineString", "coordinates": [[11.569888, 48.189182], [11.572583, 48.187126], [11.572699, 48.185852], [11.575358, 48.18434], [11.578574, 48.184177], [11.585159, 48.184265], [11.591232, 48.184067], [11.596568, 48.18292], [11.601535, 48.180546], [11.603143, 48.17896], [11.597637, 48.173065], [11.607123, 48.15593], [11.617022, 48.15359], [11.620184, 48.15331]]}}, {"type": "Feature", "properties": {"pattern_id": "41b8a1460c5d0bcb", "line": "177", "direction": "Studentenstadt -> Petuelring", "trip_count": 58}, "geometry": {"type": "LineString", "coordinates": [[11.608407, 48.18399], [11.607159, 48.186493], [11.60194, 48.18707], [11.59708, 48.187576], [11.593621, 48.187992], [11.583596, 48.187996], [11.575799, 48.1877], [11.572115, 48.187645], [11.565953, 48.186836], [11.566393, 48.18435], [11.566806, 48.181217], [11.566537, 48.175354]]}}, {"type": "Feature", "properties": {"pattern_id": "48607ab25931f317", "line": "169", "direction": "Moosach -> Moosach", "trip_count": 96}, "geometry": {"type": "LineString", "coordinates": [[11.506035, 48.181114], [11.5014, 48.180576], [11.496145, 48.179504], [11.495822, 48.18193], [11.495965, 48.184086], [11.501014, 48.183506], [11.506035, 48.181114]]}}, {"type": "Feature", "properties": {"pattern_id": "499c629654aa8acf", "line": "160", "direction": "Waldfriedhof -> Blutenburg", "trip_count": 72}, "geometry": {"type": "LineString", "coordinates": [[11.501292, 48.11221], [11.494178, 48.11242], [11.48718, 48.113865], [11.483092, 48.11471], [11.476741, 48.115604], [11.471324, 48.115078], [11.46695, 48.114716], [11.443315, 48.137924], [11.448004, 48.140404], [11.450286, 48.142063], [11.453161, 48.145607], [11.454185, 48.148083], [11.459296, 48.149197], [11.461003, 48.146572], [11.465539, 48.146626], [11.462674, 48.15119], [11.46686, 48.153866], [11.467138, 48.157284], [11.467138, 48.161232], [11.466096, 48.16485], [11.462746, 48.164864], [11.456305, 48.164516]]}}, {"type": "Feature", "properties": {"pattern_id": "4b66ebabc6b72082", "line": "155", "direction": "Max-Weber-Platz -> Emdenstra\u00dfe", "trip_count": 206}, "geometry": {"type": "LineString", "coordinates": [[11.599909, 48.13549], [11.604895, 48.135494], [11.604949, 48.133324], [11.604554, 48.128822], [11.602559, 48.127483], [11.599757, 48.125538], [11.601293, 48.12418], [11.605614, 48.121147], [11.610006, 48.11814], [11.614193, 48.1155], [11.621289, 48.115635], [11.625206, 48.11646], [11.626347, 48.112648], [11.627335, 48.110374], [11.627838, 48.10706]]}}, {"type": "Feature", "properties": {"pattern_id": "4e13985e280a4a34", "line": "177", "direction": "Studentenstadt -> Petuelring", "trip_count": 69}, "geometry": {"type": "LineString", "coordinates": [[11.608407, 48.18399], [11.607159, 48.186493], [11.60194, 48.18707], [11.59708, 48.187576], [11.593621, 48.187992], [11.583596, 48.187996], [11.575799, 48.1877], [11.572115, 48.187645], [11.565953, 48.186836], [11.566393, 48.18435], [11.566806, 48.181217], [11.566465, 48.175312]]}}, {"type": "Feature", "properties": {"pattern_id": "4fbace311747dc37", "line": "160", "direction": "Allach -> Maria-Eich-Stra\u00dfe", "trip_count": 103}, "geometry": {"type": "LineString", "coordinates": [[11.467381, 48.19021], [11.460679, 48.18833], [11.460042, 48.185055], [11.461165, 48.179607], [11.461623, 48.177902], [11.459988, 48.172626], [11.456951, 48.169674], [11.457194, 48.164917], [11.464183, 48.164696], [11.467228, 48.1641], [11.466986, 48.161213], [11.466968, 48.15727], [11.466671, 48.15424], [11.462449, 48.15045], [11.464776, 48.1464], [11.461838, 48.14672], [11.459377, 48.149364], [11.454059, 48.148365], [11.453044, 48.14566], [11.450106, 48.142124], [11.448148, 48.140636], [11.44318, 48.13801], [11.441402, 48.13695]]}}, {"type": "Feature", "properties": {"pattern_id": "505ec41280e15bd3", "line": "161", "direction": "Pasing Bf. Nord -> Berduxstra\u00dfe", "trip_count": 199}, "geometry": {"type": "LineString", "coordinates": [[11.462449, 48.15045], [11.469204, 48.150055], [11.471926, 48.150055], [11.476355, 48.1502], [11.480505, 48.151695]]}}, {"type": "Feature", "properties": {"pattern_id": "5231c7e9cbb1ab4d", "line": "140", "direction": "Scheidplatz -> Kieferngarten", "trip_count": 183}, "geometry": {"type": "LineString", "coordinates": [[11.572933, 48.171783], [11.574343, 48.170177], [11.577416, 48.17007], [11.585958, 48.17189], [11.58568, 48.17564], [11.585536, 48.17796], [11.58506, 48.182034], [11.584809, 48.18463], [11.584566, 48.18817], [11.584171, 48.192524], [11.58462, 48.196095], [11.585006, 48.19856], [11.586021, 48.20095], [11.590261, 48.201332], [11.593603, 48.2022], [11.594313, 48.205727], [11.599487, 48.20539], [11.603368, 48.20214], [11.606207, 48.200397], [11.611956, 48.201183], [11.612728, 48.202717]]}}, {"type": "Feature", "properties": {"pattern_id": "5387acc00e9e2646", "line": "154", "direction": "Nordbad -> Westerlandanger", "trip_count": 219}, "geometry": {"type": "LineString", "coordinates": [[11.562881, 48.160873], [11.559988, 48.157715], [11.559045, 48.156414], [11.562207, 48.15594], [11.56607, 48.154797], [11.565953, 48.153046], [11.567965, 48.1525], [11.570516, 48.151768], [11.572933, 48.15107], [11.575691, 48.150307], [11.580182, 48.149036], [11.581871, 48.15142], [11.583704, 48.15533], [11.585087, 48.157078], [11.589372, 48.15655], [11.593415, 48.152565], [11.596253, 48.150146], [11.601239, 48.148777], [11.609045, 48.15077], [11.613097, 48.15184], [11.617022, 48.15359], [11.620598, 48.15355], [11.623571, 48.15361], [11.628826, 48.153496], [11.637495, 48.15506], [11.642022, 48.157097], [11.642534, 48.159084], [11.645238, 48.16243], [11.644807, 48.16527], [11.643639, 48.168396], [11.644663, 48.16934], [11.647601, 48.169308], [11.659557, 48.166843], [11.662585, 48.16222]]}}, {"type": "Feature", "properties": {"pattern_id": "5429e72c1ae7c654", "line": "160", "direction": "Pasing -> Waldfriedhof", "trip_count": 60}, "geometry": {"type": "LineString", "coordinates": [[11.459377, 48.149364], [11.454059, 48.148365], [11.453044, 48.14566], [11.450106, 48.142124], [11.448148, 48.140636], [11.44318, 48.13801], [11.4673, 48.114647], [11.471944, 48.11503], [11.47631, 48.11536], [11.483524, 48.11444], [11.487952, 48.113537], [11.495022, 48.1125], [11.5022, 48.11556], [11.501292, 48.11221]]}}, {"type": "Feature", "properties": {"pattern_id": "54d7ea6f7b01eb2f", "line": "135", "direction": "Campingplatz Thalkirchen -> Thalkirchen (Tierpark)", "trip_count": 116}, "geometry": {"type": "LineString", "coordinates": [[11.544007, 48.09162], [11.545346, 48.094753], [11.544088, 48.09692], [11.546684, 48.10101]]}}, {"type": "Feature", "properties": {"pattern_id": "555777cfdcc7c17c", "line": "161", "direction": "Berduxstra\u00dfe -> Pasing Bf. Nord", "trip_count": 200}, "geometry": {"type": "LineString", "coordinates": [[11.480505, 48.151695], [11.474972, 48.150833], [11.472106, 48.15016], [11.469124, 48.15016], [11.462449, 48.15045]]}}, {"type": "Feature", "properties": {"pattern_id": "5b130ddcbea03f47", "line": "168", "direction": "Nymphenburg S\u00fcd -> Wastl-Witt-Stra\u00dfe", "trip_count": 306}, "geometry": {"type": "LineString", "coordinates": [[11.50246, 48.146362], [11.50281, 48.14315], [11.502963, 48.140297], [11.502819, 48.135944], [11.498184, 48.1315], [11.493899, 48.128925], [11.489003, 48.130104], [11.482455, 48.13013], [11.479526, 48.12956], [11.474253, 48.128258], [11.470318, 48.128067], [11.469609, 48.1266]]}}, {"type": "Feature", "properties": {"pattern_id": "5e9bcdd0f061adb9", "line": "59", "direction": "Ackermannbogen -> Giesing", "trip_count": 295}, "geometry": {"type": "LineString", "coordinates": [[11.556287, 48.165005], [11.556925, 48.16397], [11.557599, 48.16138], [11.564318, 48.160877], [11.568073, 48.16111], [11.574074, 48.160397], [11.576868, 48.1626], [11.582195, 48.162437], [11.586515, 48.16216], [11.587019, 48.1673], [11.590971, 48.16621], [11.595597, 48.163605], [11.607123, 48.15593], [11.614749, 48.15208], [11.616286, 48.148647], [11.615441, 48.143085], [11.614785, 48.139477], [11.614767, 48.13646], [11.615235, 48.130398], [11.613375, 48.126854], [11.613007, 48.1245], [11.612612, 48.120396], [11.610006, 48.11814], [11.613124, 48.114742], [11.611956, 48.110332], [11.603314, 48.10854], [11.596253, 48.107315], [11.595678, 48.110664]]}}, {"type": "Feature", "properties": {"pattern_id": "5f2e6dc5940201e6", "line": "63", "direction": "Aidenbachstra\u00dfe -> Heimeranplatz", "trip_count": 104}, "geometry": {"type": "LineString", "coordinates": [[11.523858, 48.097996], [11.524451, 48.101936], [11.522771, 48.106705], [11.520534, 48.10915], [11.517121, 48.114075], [11.517417, 48.11836], [11.51836, 48.120583], [11.523076, 48.126778], [11.529077, 48.130177], [11.532895, 48.133167]]}}, {"type": "Feature", "properties": {"pattern_id": "6314d5f5913d7f58", "line": "160", "direction": "Pasing -> Dachstra\u00dfe", "trip_count": 82}, "geometry": {"type": "LineString", "coordinates": [[11.459377, 48.149364], [11.454059, 48.148365], [11.453044, 48.14566], [11.450106, 48.142124], [11.448148, 48.140636], [11.44318, 48.13801]]}}, {"type": "Feature", "properties": {"pattern_id": "64ef1413d73149aa", "line": "52", "direction": "Tierpark (Alemannenstr.) -> Sendlinger Tor", "trip_count": 296}, "geometry": {"type": "LineString", "coordinates": [[11.558731, 48.10061], [11.561812, 48.10391], [11.565207, 48.107784], [11.567202, 48.110058], [11.570328, 48.111546], [11.571864, 48.11338], [11.57278, 48.11531], [11.575781, 48.11992], [11.576688, 48.12058], [11.578781, 48.12162], [11.581709, 48.124767], [11.58303, 48.126842], [11.57844, 48.13007], [11.575466, 48.132168], [11.574002, 48.13328], [11.567076, 48.133167]]}}, {"type": "Feature", "properties": {"pattern_id": "673681383112422d", "line": "175", "direction": "Georg-Brauchle-Ring -> Ludwigsfeld (Campingplatz)", "trip_count": 98}, "geometry": {"type": "LineString", "coordinates": [[11.530002, 48.176613], [11.529697, 48.177612], [11.536686, 48.177826], [11.536848, 48.17977], [11.536893, 48.183163], [11.531395, 48.18416], [11.529113, 48.18214], [11.525565, 48.182056], [11.52137, 48.182297], [11.521226, 48.18592], [11.524469, 48.196392], [11.522385, 48.198902], [11.518711, 48.199238], [11.512728, 48.20049], [11.506251, 48.201847], [11.49734, 48.199]]}}, {"type": "Feature", "properties": {"pattern_id": "6fbe5b04294c674f", "line": "135", "direction": "Waldfriedhof Solln -> Thalkirchen (Tierpark)", "trip_count": 139}, "geometry": {"type": "LineString", "coordinates": [[11.517013, 48.069134], [11.519735, 48.07211], [11.523409, 48.075348], [11.525062, 48.07665], [11.527361, 48.078835], [11.529113, 48.081226], [11.537099, 48.082413], [11.541177, 48.087036], [11.544007, 48.09162], [11.545346, 48.094753], [11.544088, 48.09692], [11.546684, 48.10101]]}}, {"type": "Feature", "properties": {"pattern_id": "706e68366b570d7d", "line": "52", "direction": "Sendlinger Tor -> Tierpark (Alemannenstr.)", "trip_count": 300}, "geometry": {"type": "LineString", "coordinates": [[11.567076, 48.133167], [11.571846, 48.135147], [11.574855, 48.135086], [11.573858, 48.133114], [11.57508, 48.132298], [11.578386, 48.129917], [11.583021, 48.12661], [11.580676, 48.124218], [11.579015, 48.122124], [11.576553, 48.120705], [11.574999, 48.119167], [11.572915, 48.115906], [11.571927, 48.11383], [11.570561, 48.111744], [11.566905, 48.11009], [11.56483, 48.10786], [11.56139, 48.103523], [11.559171, 48.100826]]}}, {"type": "Feature", "properties": {"pattern_id": "708484be9655d9c7", "line": "135", "direction": "Thalkirchen (Tierpark) -> Waldfriedhof Solln", "trip_count": 140}, "geometry": {"type": "LineString", "coordinates": [[11.546684, 48.10101], [11.548157, 48.100555], [11.547097, 48.096764], [11.545732, 48.09469], [11.544007, 48.09162], [11.541168, 48.08718], [11.536937, 48.082417], [11.528924, 48.081295], [11.527415, 48.079205], [11.525322, 48.07711], [11.523085, 48.075363], [11.519474, 48.07218], [11.517013, 48.069134]]}}, {"type": "Feature", "properties": {"pattern_id": "70a00d760a094905", "line": "175", "direction": "Ludwigsfeld (Campingplatz) -> Olympia-Einkaufszentrum", "trip_count": 71}, "geometry": {"type": "LineString", "coordinates": [[11.49734, 48.199], [11.506691, 48.201687], [11.512683, 48.200413], [11.5188, 48.199158], [11.522412, 48.19883], [11.523903, 48.197517], [11.521064, 48.185955], [11.521873, 48.181892], [11.525313, 48.181965], [11.530173, 48.18245], [11.531431, 48.183857], [11.53329, 48.184566], [11.536731, 48.18318], [11.529185, 48.181763]]}}, {"type": "Feature", "properties": {"pattern_id": "7276df32df3b93ab", "line": "175", "direction": "Ludwigsfeld (Campingplatz) -> Georg-Brauchle-Ring", "trip_count": 97}, "geometry": {"type": "LineString", "coordinates": [[11.49734, 48.199], [11.506691, 48.201687], [11.512683, 48.200413], [11.5188, 48.199158], [11.522412, 48.19883], [11.523903, 48.197517], [11.521064, 48.185955], [11.521873, 48.181892], [11.525313, 48.181965], [11.530173, 48.18245], [11.531431, 48.183857], [11.53329, 48.184566], [11.536731, 48.18318], [11.536677, 48.18003], [11.536416, 48.177563], [11.530002, 48.176613]]}}, {"type": "Feature", "properties": {"pattern_id": "7321d462f10642db", "line": "63", "direction": "Heimeranplatz -> Aidenbachstra\u00dfe", "trip_count": 106}, "geometry": {"type": "LineString", "coordinates": [[11.532895, 48.133167], [11.527622, 48.13006], [11.521531, 48.126015], [11.518028, 48.12055], [11.517112, 48.118404], [11.516662, 48.113667], [11.519699, 48.10956], [11.5226, 48.1063], [11.524047, 48.10198], [11.523588, 48.099728], [11.524361, 48.09797]]}}, {"type": "Feature", "properties": {"pattern_id": "77d9f3a8478dce4f", "line": "143", "direction": "Freiham, M\u00f6bel H\u00f6ffner -> Olympia-Einkaufszentrum", "trip_count": 72}, "geometry": {"type": "LineString", "coordinates": [[11.412907, 48.134235], [11.411048, 48.135147], [11.409125, 48.13844], [11.403502, 48.14167], [11.407823, 48.14246], [11.410535, 48.14552], [11.414048, 48.14641], [11.413778, 48.14887], [11.413293, 48.150383], [11.413805, 48.153793], [11.415871, 48.157257], [11.41518, 48.15986], [11.420471, 48.160606], [11.423633, 48.16137], [11.432625, 48.16301], [11.435742, 48.163555], [11.443764, 48.163876], [11.447968, 48.16437], [11.452981, 48.165024], [11.457194, 48.164917], [11.464183, 48.164696], [11.468109, 48.164684], [11.473543, 48.16455], [11.478682, 48.16411], [11.485931, 48.163723], [11.494402, 48.16541], [11.502981, 48.164307], [11.507455, 48.164154], [11.509709, 48.167156], [11.511156, 48.170357], [11.515324, 48.173405], [11.521325, 48.17522], [11.529329, 48.17688], [11.530371, 48.18202]]}}, {"type": "Feature", "properties": {"pattern_id": "7ad1fe1451bd6b45", "line": "197", "direction": "Neuperlach Zentrum -> Neuperlach Zentrum", "trip_count": 177}, "geometry": {"type": "LineString", "coordinates": [[11.647367, 48.10094], [11.640396, 48.09954], [11.636713, 48.103584], [11.636686, 48.107567], [11.639795, 48.10904], [11.644421, 48.10903], [11.646972, 48.10908], [11.650386, 48.109028], [11.654204, 48.109013], [11.658866, 48.106243], [11.658875, 48.103046], [11.657204, 48.099014], [11.654967, 48.096535], [11.652739, 48.097656], [11.648634, 48.098614], [11.647825, 48.10086]]}}, {"type": "Feature", "properties": {"pattern_id": "82332455685dcdae", "line": "187", "direction": "Michaelibad -> Arabellapark", "trip_count": 79}, "geometry": {"type": "LineString", "coordinates": [[11.630928, 48.119106], [11.632545, 48.123913], [11.634539, 48.126915], [11.631045, 48.12833], [11.632051, 48.13092], [11.632545, 48.132748], [11.633641, 48.13584], [11.635204, 48.13822], [11.635411, 48.14035], [11.628628, 48.13914], [11.627326, 48.141777], [11.627928, 48.147682], [11.624847, 48.148228], [11.622125, 48.14862], [11.616744, 48.148983], [11.609674, 48.150738], [11.608587, 48.1509], [11.600215, 48.14889], [11.601993, 48.150055], [11.605937, 48.152573], [11.608758, 48.155556], [11.611848, 48.158707], [11.615235, 48.16241], [11.618747, 48.16686], [11.621505, 48.168613], [11.623634, 48.166588], [11.621972, 48.16463], [11.624011, 48.163208], [11.621783, 48.160877], [11.619205, 48.158054], [11.617022, 48.15359], [11.620786, 48.153316]]}}, {"type": "Feature", "properties": {"pattern_id": "82c53ece06c418b1", "line": "166", "direction": "Forst-Kasten-Allee -> Kemptener Stra\u00dfe", "trip_count": 193}, "geometry": {"type": "LineString", "coordinates": [[11.477676, 48.095245], [11.475412, 48.093044], [11.475178, 48.090717], [11.480595, 48.088646], [11.478466, 48.084877], [11.483766, 48.08343], [11.48515, 48.08208], [11.484188, 48.07877]]}}, {"type": "Feature", "properties": {"pattern_id": "87a785f1fb8d62bf", "line": "155", "direction": "Emdenstra\u00dfe -> Max-Weber-Platz", "trip_count": 206}, "geometry": {"type": "LineString", "coordinates": [[11.627838, 48.10706], [11.627407, 48.110867], [11.626293, 48.113194], [11.625224, 48.116726], [11.621146, 48.11576], [11.613761, 48.11569], [11.609261, 48.118725], [11.605641, 48.121273], [11.599972, 48.125183], [11.604796, 48.12872], [11.605173, 48.132244], [11.604913, 48.135757], [11.600628, 48.135765]]}}, {"type": "Feature", "properties": {"pattern_id": "884ce645a5b66f68", "line": "160", "direction": "Maria-Eich-Stra\u00dfe -> Allach", "trip_count": 140}, "geometry": {"type": "LineString", "coordinates": [[11.441402, 48.13695], [11.443315, 48.137924], [11.448004, 48.140404], [11.450286, 48.142063], [11.453161, 48.145607], [11.454185, 48.148083], [11.459296, 48.149197], [11.461003, 48.146572], [11.465539, 48.146626], [11.462674, 48.15119], [11.46686, 48.153866], [11.467138, 48.157284], [11.467138, 48.161232], [11.466096, 48.16485], [11.462746, 48.164864], [11.457248, 48.165646], [11.457131, 48.16934], [11.460374, 48.17292], [11.461793, 48.177814], [11.461488, 48.17927], [11.460284, 48.184425], [11.461443, 48.188812], [11.467381, 48.19021]]}}, {"type": "Feature", "properties": {"pattern_id": "895c451232d27531", "line": "135", "direction": "Thalkirchen (Tierpark) -> Campingplatz Thalkirchen", "trip_count": 121}, "geometry": {"type": "LineString", "coordinates": [[11.546684, 48.10101], [11.548157, 48.100555], [11.547097, 48.096764], [11.545732, 48.09469], [11.544007, 48.09162]]}}, {"type": "Feature", "properties": {"pattern_id": "8af0839efd4c181d", "line": "63", "direction": "Rotkreuzplatz -> Forstenrieder Allee", "trip_count": 331}, "geometry": {"type": "LineString", "coordinates": [[11.533766, 48.15266], [11.536677, 48.151474], [11.536551, 48.14992], [11.535329, 48.14607], [11.534422, 48.14267], [11.533964, 48.13944], [11.534225, 48.136333], [11.533856, 48.134804], [11.532895, 48.133167], [11.527622, 48.13006], [11.521531, 48.126015], [11.518028, 48.12055], [11.517112, 48.118404], [11.516662, 48.113667], [11.519699, 48.10956], [11.5226, 48.1063], [11.524047, 48.10198], [11.523588, 48.099728], [11.524361, 48.09797], [11.523166, 48.094776], [11.522448, 48.093372], [11.520813, 48.09032], [11.519564, 48.08768], [11.516833, 48.08343], [11.512692, 48.078922], [11.508946, 48.08188], [11.505919, 48.08228], [11.503933, 48.082333], [11.503188, 48.086376], [11.503089, 48.089424], [11.506323, 48.091934], [11.503493, 48.094456], [11.50069, 48.094833], [11.498678, 48.094677]]}}, {"type": "Feature", "properties": {"pattern_id": "8fc27b1d36c83106", "line": "68", "direction": "Hauptbahnhof Nord -> Hauptbahnhof Nord", "trip_count": 253}, "geometry": {"type": "LineString", "coordinates": [[11.561102, 48.141556], [11.55741, 48.13928], [11.55582, 48.13889], [11.556036, 48.13453], [11.557967, 48.133133], [11.55838, 48.130093], [11.558353, 48.126747], [11.561488, 48.125214], [11.567022, 48.123238], [11.57102, 48.121117], [11.575817, 48.119232], [11.580649, 48.11616], [11.583991, 48.1194], [11.585734, 48.121475], [11.590827, 48.122417], [11.596038, 48.12351], [11.600197, 48.125626], [11.603862, 48.127995], [11.609782, 48.132126], [11.609863, 48.135292], [11.606925, 48.13954], [11.606728, 48.144108], [11.608165, 48.14819], [11.608587, 48.1509], [11.600215, 48.14889], [11.596388, 48.150284], [11.594969, 48.15102], [11.593477, 48.15293], [11.588716, 48.15672], [11.5848, 48.157234], [11.583192, 48.15501], [11.581611, 48.151474], [11.580299, 48.14882], [11.576454, 48.147747], [11.57428, 48.148346], [11.571433, 48.149155], [11.566411, 48.14997], [11.564462, 48.146957], [11.560285, 48.145184], [11.561102, 48.141556]]}}, {"type": "Feature", "properties": {"pattern_id": "90aef3badfddd731", "line": "63", "direction": "Forstenrieder Allee -> Rotkreuzplatz", "trip_count": 302}, "geometry": {"type": "LineString", "coordinates": [[11.498678, 48.094677], [11.500708, 48.094635], [11.504679, 48.094208], [11.505865, 48.091465], [11.502739, 48.08961], [11.502846, 48.0869], [11.503556, 48.082153], [11.506503, 48.082268], [11.508775, 48.081852], [11.512746, 48.078793], [11.517642, 48.08383], [11.51986, 48.08771], [11.521361, 48.0907], [11.52278, 48.09344], [11.523544, 48.095413], [11.523858, 48.097996], [11.524451, 48.101936], [11.522771, 48.106705], [11.520534, 48.10915], [11.517121, 48.114075], [11.517417, 48.11836], [11.51836, 48.120583], [11.523076, 48.126778], [11.529077, 48.130177], [11.533668, 48.133713], [11.534144, 48.135265], [11.534422, 48.1363], [11.534808, 48.13971], [11.534898, 48.142532], [11.536614, 48.14673], [11.537108, 48.150085], [11.536264, 48.152008], [11.533982, 48.152843]]}}, {"type": "Feature", "properties": {"pattern_id": "9138a72e9298cc9a", "line": "160", "direction": "Otto-Warburg-Stra\u00dfe -> Maria-Eich-Stra\u00dfe", "trip_count": 67}, "geometry": {"type": "LineString", "coordinates": [[11.457472, 48.205368], [11.457095, 48.20256], [11.458002, 48.1988], [11.461012, 48.196274], [11.463913, 48.194393], [11.466348, 48.191753], [11.467381, 48.19021], [11.460679, 48.18833], [11.460042, 48.185055], [11.460994, 48.18043], [11.461623, 48.177902], [11.459988, 48.172626], [11.456951, 48.169674], [11.457194, 48.164917], [11.464183, 48.164696], [11.467228, 48.1641], [11.466986, 48.161213], [11.466968, 48.15727], [11.466671, 48.15424], [11.462449, 48.15045], [11.464776, 48.1464], [11.461838, 48.14672], [11.459377, 48.149364], [11.454059, 48.148365], [11.453044, 48.14566], [11.450106, 48.142124], [11.448148, 48.140636], [11.44318, 48.13801], [11.441402, 48.13695]]}}, {"type": "Feature", "properties": {"pattern_id": "9578484b7e386e06", "line": "58", "direction": "Hauptbahnhof Nord -> Hauptbahnhof Nord", "trip_count": 287}, "geometry": {"type": "LineString", "coordinates": [[11.559216, 48.141376], [11.561794, 48.142376], [11.563662, 48.14546], [11.566106, 48.1481], [11.57084, 48.146732], [11.57552, 48.145367], [11.579167, 48.145668], [11.580955, 48.149406], [11.581871, 48.15142], [11.583704, 48.15533], [11.585087, 48.157078], [11.589372, 48.15655], [11.593415, 48.152565], [11.596253, 48.150146], [11.601239, 48.148777], [11.60883, 48.150494], [11.607994, 48.14827], [11.606557, 48.14436], [11.607024, 48.139145], [11.609405, 48.135796], [11.609521, 48.132057], [11.603943, 48.127934], [11.599002, 48.1251], [11.596478, 48.123833], [11.589965, 48.122395], [11.585186, 48.12102], [11.582877, 48.11947], [11.580676, 48.124218], [11.579015, 48.122124], [11.576553, 48.120705], [11.574801, 48.119785], [11.571118, 48.12123], [11.567076, 48.123425], [11.561542, 48.125313], [11.558515, 48.126747], [11.558569, 48.13007], [11.558075, 48.133217], [11.55609, 48.134678], [11.556072, 48.13887], [11.559216, 48.141376]]}}, {"type": "Feature", "properties": {"pattern_id": "a3c1af24f95f61bc", "line": "140", "direction": "Kieferngarten -> Scheidplatz", "trip_count": 182}, "geometry": {"type": "LineString", "coordinates": [[11.612728, 48.202717], [11.611596, 48.20066], [11.605991, 48.200806], [11.602856, 48.202267], [11.599685, 48.205223], [11.594133, 48.205894], [11.592687, 48.201748], [11.588869, 48.201344], [11.58506, 48.200603], [11.584593, 48.198], [11.58409, 48.19557], [11.583847, 48.192764], [11.584225, 48.18734], [11.584503, 48.18402], [11.584746, 48.181534], [11.585024, 48.17837], [11.585159, 48.176018], [11.585887, 48.171616], [11.577389, 48.17016], [11.574325, 48.170307], [11.572933, 48.171783]]}}, {"type": "Feature", "properties": {"pattern_id": "a4128c422b164d35", "line": "132", "direction": "Forstenrieder Park -> Marienplatz", "trip_count": 168}, "geometry": {"type": "LineString", "coordinates": [[11.488446, 48.0775], [11.492264, 48.080143], [11.494016, 48.082195], [11.494878, 48.08475], [11.496046, 48.08721], [11.496935, 48.089985], [11.498193, 48.094658], [11.500708, 48.094635], [11.505173, 48.094994], [11.508937, 48.098698], [11.511542, 48.101162], [11.518432, 48.104862], [11.521702, 48.10637], [11.526265, 48.109962], [11.526553, 48.11272], [11.533892, 48.113064], [11.536686, 48.116806], [11.540207, 48.11746], [11.540872, 48.12009], [11.545391, 48.122562], [11.548472, 48.122986], [11.548202, 48.11878], [11.550358, 48.117626], [11.55237, 48.1197], [11.555191, 48.120445], [11.561902, 48.12083], [11.56695, 48.122814], [11.57128, 48.125134], [11.57667, 48.127995], [11.579068, 48.129093], [11.582024, 48.13065], [11.585321, 48.132534], [11.583192, 48.134117], [11.579589, 48.13603], [11.577784, 48.136417]]}}, {"type": "Feature", "properties": {"pattern_id": "aa8c0f165b52757d", "line": "190", "direction": "Messestadt Ost -> Ostbahnhof Friedenstra\u00dfe", "trip_count": 178}, "geometry": {"type": "LineString", "coordinates": [[11.703521, 48.133278], [11.702748, 48.12979], [11.699694, 48.129597], [11.694538, 48.12956], [11.689408, 48.129524], [11.690154, 48.13333], [11.690334, 48.135822], [11.689462, 48.138515], [11.685204, 48.140865], [11.681997, 48.140793], [11.678898, 48.143436], [11.680219, 48.140656], [11.674029, 48.139763], [11.668415, 48.139996], [11.662315, 48.140705], [11.654769, 48.139923], [11.647745, 48.13994], [11.643055, 48.140057], [11.637701, 48.140392], [11.6333, 48.13566], [11.632356, 48.132923], [11.631862, 48.130962], [11.628134, 48.13132], [11.622888, 48.130047], [11.621631, 48.12629], [11.619385, 48.124725], [11.611345, 48.124767], [11.609755, 48.1258], [11.607635, 48.12721], [11.599182, 48.121223], [11.6075, 48.127148]]}}, {"type": "Feature", "properties": {"pattern_id": "adb4fc528d498c92", "line": "53", "direction": "M\u00fcnchner Freiheit -> Aidenbachstra\u00dfe", "trip_count": 291}, "geometry": {"type": "LineString", "coordinates": [[11.586632, 48.162334], [11.585024, 48.159397], [11.580551, 48.159973], [11.574092, 48.160507], [11.568172, 48.161224], [11.562584, 48.161034], [11.557599, 48.161472], [11.5537, 48.16146], [11.547834, 48.15975], [11.543298, 48.1572], [11.540207, 48.155598], [11.534072, 48.15259], [11.536677, 48.151474], [11.536551, 48.14992], [11.535329, 48.14607], [11.534422, 48.14267], [11.533964, 48.13944], [11.534225, 48.136333], [11.534467, 48.134895], [11.537396, 48.134857], [11.539659, 48.133636], [11.539102, 48.13056], [11.539039, 48.127914], [11.540297, 48.12598], [11.541043, 48.122074], [11.540567, 48.119976], [11.539264, 48.116924], [11.536497, 48.116978], [11.533668, 48.113247], [11.534117, 48.10967], [11.532661, 48.106007], [11.530065, 48.102806], [11.524047, 48.10198], [11.523588, 48.099728], [11.524038, 48.09761]]}}, {"type": "Feature", "properties": {"pattern_id": "aeb31e3260b922f8", "line": "56", "direction": "F\u00fcrstenried West -> Schloss Blutenburg", "trip_count": 303}, "geometry": {"type": "LineString", "coordinates": [[11.480254, 48.088585], [11.481278, 48.093235], [11.478942, 48.09951], [11.475313, 48.105267], [11.475412, 48.108643], [11.473948, 48.1116], [11.477047, 48.113613], [11.477559, 48.116013], [11.478565, 48.120182], [11.479005, 48.121796], [11.478852, 48.125885], [11.475942, 48.12573], [11.474918, 48.128098], [11.469276, 48.132282], [11.463698, 48.13539], [11.461335, 48.137268], [11.456754, 48.140495], [11.458155, 48.143887], [11.459314, 48.146267], [11.461003, 48.146572], [11.460509, 48.14897], [11.455927, 48.15335], [11.449963, 48.157677], [11.446082, 48.160393], [11.443764, 48.163876], [11.447968, 48.16437], [11.452981, 48.165024], [11.456323, 48.165245], [11.454535, 48.164383]]}}, {"type": "Feature", "properties": {"pattern_id": "b087ee92c8a76f5c", "line": "168", "direction": "Wastl-Witt-Stra\u00dfe -> Nymphenburg S\u00fcd", "trip_count": 498}, "geometry": {"type": "LineString", "coordinates": [[11.469609, 48.1266], [11.474702, 48.12558], [11.474918, 48.128098], [11.479553, 48.12942], [11.483901, 48.1301], [11.49018, 48.12984], [11.494537, 48.128887], [11.498346, 48.131447], [11.503035, 48.13167], [11.503125, 48.134758], [11.503358, 48.13935], [11.503574, 48.143055], [11.50246, 48.146362]]}}, {"type": "Feature", "properties": {"pattern_id": "b114087b97362619", "line": "164", "direction": "Augustenfelder Stra\u00dfe -> Westfriedhof", "trip_count": 151}, "geometry": {"type": "LineString", "coordinates": [[11.443998, 48.20062], [11.447528, 48.20008], [11.453349, 48.201244], [11.458002, 48.1988], [11.461012, 48.196274], [11.463913, 48.194393], [11.466348, 48.191753], [11.466923, 48.190052], [11.460644, 48.18917], [11.459745, 48.19104], [11.456664, 48.194878], [11.451256, 48.191902], [11.44539, 48.186333], [11.447699, 48.182457], [11.449415, 48.18104], [11.445992, 48.18008], [11.443531, 48.176525], [11.4468, 48.174934], [11.462566, 48.177], [11.468531, 48.177395], [11.473813, 48.177666], [11.48126, 48.178013], [11.490216, 48.179348], [11.495112, 48.17776], [11.504374, 48.17269], [11.509018, 48.17053], [11.511335, 48.16954], [11.514767, 48.168068], [11.522412, 48.16856], [11.527864, 48.16932]]}}, {"type": "Feature", "properties": {"pattern_id": "b2c4eb622808376b", "line": "190", "direction": "Ostbahnhof Friedenstra\u00dfe -> Messestadt Ost", "trip_count": 180}, "geometry": {"type": "LineString", "coordinates": [[11.6075, 48.127148], [11.61024, 48.12532], [11.612288, 48.124683], [11.613654, 48.126488], [11.61563, 48.130142], [11.62305, 48.1301], [11.627973, 48.13125], [11.632051, 48.13092], [11.632545, 48.132748], [11.633641, 48.13584], [11.635204, 48.13822], [11.636902, 48.140297], [11.644079, 48.13992], [11.647493, 48.139782], [11.654823, 48.139797], [11.662738, 48.140446], [11.670158, 48.1397], [11.674092, 48.13968], [11.679976, 48.14036], [11.679141, 48.14335], [11.681342, 48.14104], [11.685627, 48.140873], [11.68922, 48.13841], [11.690181, 48.13518], [11.689516, 48.133514], [11.689408, 48.129433], [11.694583, 48.129475], [11.699802, 48.129482], [11.70247, 48.129536], [11.703889, 48.13345]]}}, {"type": "Feature", "properties": {"pattern_id": "b3577c7fb5659b68", "line": "56", "direction": "Schloss Blutenburg -> F\u00fcrstenried West", "trip_count": 304}, "geometry": {"type": "LineString", "coordinates": [[11.454535, 48.164383], [11.452954, 48.16514], [11.447591, 48.164425], [11.443576, 48.16309], [11.445893, 48.160374], [11.450403, 48.157173], [11.45582, 48.153236], [11.460329, 48.148846], [11.45908, 48.14629], [11.45794, 48.143803], [11.457374, 48.139797], [11.460985, 48.137444], [11.463186, 48.135536], [11.468252, 48.13265], [11.47499, 48.12779], [11.475313, 48.125847], [11.478852, 48.12572], [11.478718, 48.12205], [11.478206, 48.120296], [11.477038, 48.11524], [11.476723, 48.113747], [11.473876, 48.110874], [11.475394, 48.108505], [11.475169, 48.10524], [11.478924, 48.09923], [11.481152, 48.093582], [11.480083, 48.088795]]}}, {"type": "Feature", "properties": {"pattern_id": "b59dba94b2af8898", "line": "184", "direction": "Bruno-Walter-Ring -> Arabellapark", "trip_count": 77}, "geometry": {"type": "LineString", "coordinates": [[11.640055, 48.162285], [11.640298, 48.160194], [11.641843, 48.15838], [11.641169, 48.156727], [11.637288, 48.15521], [11.628566, 48.153603], [11.62296, 48.15389], [11.62049, 48.153214]]}}, {"type": "Feature", "properties": {"pattern_id": "b93d028188b9f7a5", "line": "143", "direction": "H\u00f6rweg -> Olympia-Einkaufszentrum", "trip_count": 57}, "geometry": {"type": "LineString", "coordinates": [[11.406727, 48.152016], [11.41023, 48.152542], [11.413805, 48.153793], [11.415871, 48.157257], [11.41518, 48.15986], [11.420471, 48.160606], [11.423633, 48.16137], [11.432625, 48.16301], [11.435742, 48.163555], [11.443764, 48.163876], [11.447968, 48.16437], [11.452981, 48.165024], [11.457194, 48.164917], [11.464183, 48.164696], [11.468109, 48.164684], [11.473543, 48.16455], [11.478682, 48.16411], [11.485931, 48.163723], [11.494402, 48.16541], [11.502981, 48.164307], [11.507455, 48.164154], [11.509709, 48.167156], [11.511156, 48.170357], [11.515324, 48.173405], [11.521325, 48.17522], [11.529329, 48.17688], [11.529113, 48.18214]]}}, {"type": "Feature", "properties": {"pattern_id": "bbf40f7b59686572", "line": "132", "direction": "Marienplatz -> Forstenrieder Park", "trip_count": 158}, "geometry": {"type": "LineString", "coordinates": [[11.577784, 48.136417], [11.574855, 48.135086], [11.574694, 48.13408], [11.583767, 48.132736], [11.582545, 48.13111], [11.579428, 48.129494], [11.576688, 48.128197], [11.57075, 48.125732], [11.567022, 48.12378], [11.561381, 48.120583], [11.55556, 48.120426], [11.55229, 48.119785], [11.548858, 48.11939], [11.548714, 48.122944], [11.543522, 48.122272], [11.540567, 48.119976], [11.539264, 48.116924], [11.536497, 48.116978], [11.533668, 48.113247], [11.526023, 48.11222], [11.526185, 48.109943], [11.521513, 48.10644], [11.518351, 48.105007], [11.510662, 48.10068], [11.507607, 48.09739], [11.503493, 48.094456], [11.50069, 48.094833], [11.498418, 48.094563], [11.496738, 48.08983], [11.495813, 48.087], [11.494708, 48.084846], [11.493971, 48.08256], [11.491977, 48.079967], [11.488446, 48.0775]]}}, {"type": "Feature", "properties": {"pattern_id": "bc9a71239679b7be", "line": "143", "direction": "Olympia-Einkaufszentrum -> Freiham, M\u00f6bel H\u00f6ffner", "trip_count": 78}, "geometry": {"type": "LineString", "coordinates": [[11.529185, 48.181763], [11.528278, 48.176636], [11.520651, 48.17527], [11.51474, 48.173485], [11.510302, 48.169373], [11.509368, 48.167267], [11.506997, 48.164036], [11.5022, 48.164635], [11.494061, 48.16573], [11.486767, 48.163857], [11.478682, 48.16427], [11.473337, 48.164654], [11.466096, 48.16485], [11.462746, 48.164864], [11.456305, 48.164516], [11.455308, 48.16406], [11.452954, 48.16514], [11.447591, 48.164425], [11.442722, 48.163868], [11.435131, 48.163837], [11.432284, 48.16313], [11.423004, 48.161358], [11.420094, 48.160664], [11.415054, 48.159798], [11.415889, 48.156857], [11.413751, 48.153854], [11.413024, 48.15055], [11.41376, 48.148315], [11.414263, 48.146656], [11.410356, 48.145523], [11.409538, 48.140915], [11.409134, 48.13794], [11.411039, 48.134624], [11.412907, 48.134235]]}}, {"type": "Feature", "properties": {"pattern_id": "bd8d1a9d2a8e49a7", "line": "63", "direction": "Forstenrieder Allee -> Rotkreuzplatz", "trip_count": 291}, "geometry": {"type": "LineString", "coordinates": [[11.498678, 48.094677], [11.500708, 48.094635], [11.504679, 48.094208], [11.505865, 48.091465], [11.502739, 48.08961], [11.502846, 48.0869], [11.503556, 48.082153], [11.506503, 48.082268], [11.508775, 48.081852], [11.512746, 48.078793], [11.517642, 48.08383], [11.51986, 48.08771], [11.521361, 48.0907], [11.52278, 48.09344], [11.523544, 48.095413], [11.523858, 48.097996], [11.523984, 48.09891], [11.524451, 48.101936], [11.522771, 48.106705], [11.520534, 48.10915], [11.517121, 48.114075], [11.517417, 48.11836], [11.51836, 48.120583], [11.523076, 48.126778], [11.529077, 48.130177], [11.533668, 48.133713], [11.534144, 48.135265], [11.534422, 48.1363], [11.534808, 48.13971], [11.534898, 48.142532], [11.536614, 48.14673], [11.537108, 48.150085], [11.536264, 48.152008], [11.533982, 48.152843]]}}, {"type": "Feature", "properties": {"pattern_id": "bf4fe716c1aae256", "line": "197", "direction": "Neuperlach Zentrum -> Neuperlach Zentrum", "trip_count": 108}, "geometry": {"type": "LineString", "coordinates": [[11.647367, 48.10094], [11.640396, 48.09954], [11.636713, 48.103584], [11.636686, 48.107567], [11.639795, 48.10904], [11.644421, 48.10903], [11.646972, 48.10908], [11.650386, 48.109028], [11.654204, 48.109013], [11.658866, 48.106243], [11.658875, 48.103046], [11.657204, 48.099014], [11.654967, 48.096535], [11.652739, 48.097656], [11.648634, 48.098614], [11.647367, 48.10094]]}}, {"type": "Feature", "properties": {"pattern_id": "c2e01cd1f6ed415c", "line": "183", "direction": "Arabellapark -> Messestadt West", "trip_count": 122}, "geometry": {"type": "LineString", "coordinates": [[11.62049, 48.153214], [11.620598, 48.15355], [11.623571, 48.15361], [11.628826, 48.153496], [11.637495, 48.15506], [11.641654, 48.15643], [11.64116, 48.153023], [11.640657, 48.150803], [11.640405, 48.14838], [11.640594, 48.146385], [11.644097, 48.147137], [11.648697, 48.14852], [11.650413, 48.14883], [11.657896, 48.14966], [11.658426, 48.14697], [11.661282, 48.142857], [11.662738, 48.140446], [11.670158, 48.1397], [11.674092, 48.13968], [11.679976, 48.14036], [11.685627, 48.140873], [11.68922, 48.13841], [11.690181, 48.13518], [11.689516, 48.133514]]}}, {"type": "Feature", "properties": {"pattern_id": "c5bcba13995f80c0", "line": "181", "direction": "Wallnerstra\u00dfe -> Studentenstadt", "trip_count": 65}, "geometry": {"type": "LineString", "coordinates": [[11.633003, 48.210194], [11.631162, 48.207157], [11.62932, 48.20418], [11.626248, 48.19907], [11.62411, 48.19565], [11.62005, 48.19131], [11.615405, 48.19015], [11.608875, 48.184467]]}}, {"type": "Feature", "properties": {"pattern_id": "c5eb7bd1dc05bf2e", "line": "154", "direction": "Westerlandanger -> Nordbad", "trip_count": 218}, "geometry": {"type": "LineString", "coordinates": [[11.662585, 48.16222], [11.659575, 48.167336], [11.647601, 48.1694], [11.643352, 48.169014], [11.643576, 48.16748], [11.644601, 48.165146], [11.644996, 48.162537], [11.641843, 48.15838], [11.641169, 48.156727], [11.637288, 48.15521], [11.628566, 48.153603], [11.62296, 48.15389], [11.620948, 48.153816], [11.616887, 48.15397], [11.612809, 48.1522], [11.608587, 48.1509], [11.600215, 48.14889], [11.596388, 48.150284], [11.594969, 48.15102], [11.593477, 48.15293], [11.588716, 48.15672], [11.5848, 48.157234], [11.583192, 48.15501], [11.581611, 48.151474], [11.580119, 48.149166], [11.576167, 48.150257], [11.573616, 48.151], [11.57093, 48.151733], [11.567795, 48.15266], [11.565872, 48.153206], [11.566312, 48.154854], [11.562162, 48.156048], [11.559135, 48.15652], [11.560374, 48.15773], [11.562881, 48.160873]]}}, {"type": "Feature", "properties": {"pattern_id": "c7cf4e9fbaf5919e", "line": "160", "direction": "Maria-Eich-Stra\u00dfe -> Otto-Warburg-Stra\u00dfe", "trip_count": 133}, "geometry": {"type": "LineString", "coordinates": [[11.441402, 48.13695], [11.443315, 48.137924], [11.448004, 48.140404], [11.450286, 48.142063], [11.453161, 48.145607], [11.454185, 48.148083], [11.459296, 48.149197], [11.461003, 48.146572], [11.465539, 48.146626], [11.462674, 48.15119], [11.46686, 48.153866], [11.467138, 48.157284], [11.467138, 48.161232], [11.466096, 48.16485], [11.462746, 48.164864], [11.457248, 48.165646], [11.457131, 48.16934], [11.460374, 48.17292], [11.461793, 48.177814], [11.461488, 48.17927], [11.460284, 48.184425], [11.461443, 48.188812], [11.467498, 48.189842], [11.466483, 48.191795], [11.464255, 48.194225], [11.461102, 48.196346], [11.458245, 48.199978], [11.457221, 48.202583], [11.457643, 48.206554]]}}, {"type": "Feature", "properties": {"pattern_id": "cc187783b3bed147", "line": "184", "direction": "Arabellapark -> Bruno-Walter-Ring", "trip_count": 126}, "geometry": {"type": "LineString", "coordinates": [[11.62049, 48.153214], [11.620598, 48.15355], [11.623571, 48.15361], [11.628826, 48.153496], [11.637495, 48.15506], [11.642022, 48.157097], [11.641663, 48.15881], [11.640486, 48.160133], [11.640055, 48.162285]]}}, {"type": "Feature", "properties": {"pattern_id": "cd31572b0b015247", "line": "181", "direction": "Wallnerstra\u00dfe -> Studentenstadt", "trip_count": 160}, "geometry": {"type": "LineString", "coordinates": [[11.633003, 48.210194], [11.631162, 48.207157], [11.62932, 48.20418], [11.626248, 48.19907], [11.62411, 48.19565], [11.621532, 48.191483], [11.624038, 48.19082], [11.627443, 48.19011], [11.624811, 48.19081], [11.62005, 48.19131], [11.615405, 48.19015], [11.608875, 48.184467]]}}, {"type": "Feature", "properties": {"pattern_id": "ce24b2b82c5a7b0b", "line": "183", "direction": "Messestadt West -> Arabellapark", "trip_count": 125}, "geometry": {"type": "LineString", "coordinates": [[11.690154, 48.13333], [11.690334, 48.135822], [11.689462, 48.138515], [11.685204, 48.140865], [11.681997, 48.140793], [11.679859, 48.140453], [11.674029, 48.139763], [11.668415, 48.139996], [11.662315, 48.140705], [11.661462, 48.142918], [11.658569, 48.147182], [11.65803, 48.149815], [11.649972, 48.14886], [11.648194, 48.14846], [11.643397, 48.14716], [11.640459, 48.146507], [11.640612, 48.147976], [11.640711, 48.15037], [11.641411, 48.15357], [11.641699, 48.15572], [11.641169, 48.156727], [11.637288, 48.15521], [11.628566, 48.153603], [11.62296, 48.15389], [11.62049, 48.153214]]}}, {"type": "Feature", "properties": {"pattern_id": "d054b0e84e69f9d7", "line": "177", "direction": "Studentenstadt -> Petuelring", "trip_count": 76}, "geometry": {"type": "LineString", "coordinates": [[11.608407, 48.18399], [11.607159, 48.186493], [11.60194, 48.18707], [11.59708, 48.187576], [11.593621, 48.187992], [11.583596, 48.187996], [11.575799, 48.1877], [11.572115, 48.187645], [11.565953, 48.186836], [11.566393, 48.18435], [11.566806, 48.181217], [11.566609, 48.175396]]}}, {"type": "Feature", "properties": {"pattern_id": "d3b4bc06307e4061", "line": "160", "direction": "Otto-Warburg-Stra\u00dfe -> Maria-Eich-Stra\u00dfe", "trip_count": 65}, "geometry": {"type": "LineString", "coordinates": [[11.457472, 48.205368], [11.457095, 48.20256], [11.458002, 48.1988], [11.461012, 48.196274], [11.463913, 48.194393], [11.466348, 48.191753], [11.467381, 48.19021], [11.460679, 48.18833], [11.460042, 48.185055], [11.461165, 48.179607], [11.461623, 48.177902], [11.459988, 48.172626], [11.456951, 48.169674], [11.457194, 48.164917], [11.464183, 48.164696], [11.467228, 48.1641], [11.466986, 48.161213], [11.466968, 48.15727], [11.466671, 48.15424], [11.462449, 48.15045], [11.464776, 48.1464], [11.461838, 48.14672], [11.459377, 48.149364], [11.454059, 48.148365], [11.453044, 48.14566], [11.450106, 48.142124], [11.448148, 48.140636], [11.44318, 48.13801], [11.441402, 48.13695]]}}, {"type": "Feature", "properties": {"pattern_id": "d3c1a2cce0836dd4", "line": "130", "direction": "Pasing -> Am Harras", "trip_count": 165}, "geometry": {"type": "LineString", "coordinates": [[11.459898, 48.148804], [11.461003, 48.146572], [11.465719, 48.146015], [11.471046, 48.14535], [11.483551, 48.144875], [11.490396, 48.14419], [11.496495, 48.14358], [11.502056, 48.143414], [11.512099, 48.14147], [11.511722, 48.139145], [11.514084, 48.13498], [11.51668, 48.134884], [11.523508, 48.134686], [11.529517, 48.132046], [11.531134, 48.130814], [11.534314, 48.128277], [11.535554, 48.12594], [11.534701, 48.123814], [11.534602, 48.120186], [11.535868, 48.116806], [11.540037, 48.116177]]}}, {"type": "Feature", "properties": {"pattern_id": "d6cd5c56f1341fdf", "line": "62", "direction": "Ostbahnhof -> Rotkreuzplatz", "trip_count": 538}, "geometry": {"type": "LineString", "coordinates": [[11.604329, 48.128296], [11.599002, 48.1251], [11.596478, 48.123833], [11.593136, 48.12352], [11.589381, 48.124607], [11.58303, 48.126842], [11.57844, 48.13007], [11.575466, 48.132168], [11.574002, 48.13328], [11.565675, 48.133175], [11.562126, 48.12939], [11.563752, 48.127567], [11.561569, 48.12492], [11.558919, 48.12244], [11.55723, 48.12137], [11.55556, 48.120426], [11.553727, 48.123363], [11.548777, 48.12577], [11.544555, 48.12746], [11.541043, 48.125492], [11.535761, 48.126682], [11.534656, 48.128384], [11.531116, 48.13113], [11.532796, 48.1339], [11.530649, 48.135483], [11.524217, 48.136047], [11.521918, 48.137714], [11.519268, 48.13965], [11.519645, 48.143616], [11.520444, 48.146896], [11.520849, 48.149982], [11.523669, 48.151306], [11.528116, 48.151882], [11.533766, 48.15266]]}}, {"type": "Feature", "properties": {"pattern_id": "d7bb6104b587ba4c", "line": "177", "direction": "Petuelring -> Studentenstadt", "trip_count": 204}, "geometry": {"type": "LineString", "coordinates": [[11.566465, 48.175312], [11.567004, 48.181335], [11.566681, 48.1848], [11.566797, 48.187134], [11.57314, 48.187424], [11.57587, 48.18751], [11.585482, 48.187798], [11.59186, 48.187794], [11.597026, 48.187393], [11.602865, 48.186714], [11.606224, 48.186363], [11.608407, 48.18399]]}}, {"type": "Feature", "properties": {"pattern_id": "d820580397c68ffb", "line": "132", "direction": "Implerstra\u00dfe -> Marienplatz", "trip_count": 56}, "geometry": {"type": "LineString", "coordinates": [[11.548202, 48.11878], [11.550358, 48.117626], [11.55237, 48.1197], [11.555191, 48.120445], [11.561902, 48.12083], [11.56695, 48.122814], [11.57128, 48.125134], [11.57667, 48.127995], [11.579068, 48.129093], [11.582024, 48.13065], [11.585321, 48.132534], [11.583192, 48.134117], [11.579589, 48.13603], [11.577784, 48.136417]]}}, {"type": "Feature", "properties": {"pattern_id": "db4a3532c3895508", "line": "164", "direction": "Westfriedhof -> Augustenfelder Stra\u00dfe", "trip_count": 145}, "geometry": {"type": "LineString", "coordinates": [[11.527505, 48.169247], [11.522304, 48.16866], [11.514282, 48.16838], [11.508784, 48.17086], [11.504598, 48.172813], [11.494267, 48.17838], [11.489246, 48.179592], [11.480344, 48.178158], [11.473732, 48.177826], [11.467453, 48.177593], [11.463168, 48.177345], [11.446315, 48.175232], [11.443324, 48.177055], [11.446297, 48.180134], [11.449594, 48.181313], [11.447905, 48.182507], [11.445561, 48.186363], [11.451885, 48.191986], [11.456206, 48.194633], [11.4597, 48.190865], [11.461443, 48.188812], [11.467498, 48.189842], [11.466483, 48.191795], [11.464255, 48.194225], [11.461102, 48.196346], [11.457032, 48.199207], [11.453403, 48.201317], [11.447834, 48.200417], [11.443998, 48.20062]]}}, {"type": "Feature", "properties": {"pattern_id": "deadc71737de7fde", "line": "130", "direction": "Am Harras -> Pasing", "trip_count": 161}, "geometry": {"type": "LineString", "coordinates": [[11.539264, 48.116924], [11.535797, 48.116978], [11.535006, 48.120895], [11.534539, 48.124073], [11.535761, 48.126682], [11.534656, 48.128384], [11.529383, 48.13223], [11.522349, 48.13478], [11.516878, 48.135063], [11.51377, 48.135452], [11.51165, 48.139385], [11.512369, 48.141727], [11.50184, 48.143414], [11.497232, 48.14381], [11.490234, 48.144493], [11.482149, 48.145237], [11.470363, 48.145588], [11.464776, 48.1464], [11.461838, 48.14672], [11.460509, 48.14897]]}}, {"type": "Feature", "properties": {"pattern_id": "e3dac4af250580a9", "line": "160", "direction": "Allach -> Maria-Eich-Stra\u00dfe", "trip_count": 97}, "geometry": {"type": "LineString", "coordinates": [[11.467381, 48.19021], [11.460679, 48.18833], [11.460042, 48.185055], [11.460994, 48.18043], [11.461623, 48.177902], [11.459988, 48.172626], [11.456951, 48.169674], [11.457194, 48.164917], [11.464183, 48.164696], [11.467228, 48.1641], [11.466986, 48.161213], [11.466968, 48.15727], [11.466671, 48.15424], [11.462449, 48.15045], [11.464776, 48.1464], [11.461838, 48.14672], [11.459377, 48.149364], [11.454059, 48.148365], [11.453044, 48.14566], [11.450106, 48.142124], [11.448148, 48.140636], [11.44318, 48.13801], [11.441402, 48.13695]]}}, {"type": "Feature", "properties": {"pattern_id": "e5d4eb50b8a2ac60", "line": "62", "direction": "Rotkreuzplatz -> Ostbahnhof", "trip_count": 525}, "geometry": {"type": "LineString", "coordinates": [[11.533982, 48.152843], [11.53267, 48.15298], [11.527891, 48.151974], [11.523714, 48.151432], [11.519744, 48.150257], [11.520175, 48.146233], [11.519295, 48.143383], [11.518845, 48.13974], [11.522214, 48.137264], [11.523759, 48.136154], [11.530335, 48.135586], [11.532895, 48.133167], [11.531134, 48.130814], [11.534314, 48.128277], [11.536165, 48.125732], [11.541213, 48.125256], [11.544932, 48.12742], [11.548831, 48.125538], [11.55405, 48.12309], [11.555191, 48.120445], [11.5575, 48.121372], [11.559189, 48.122482], [11.562171, 48.12535], [11.563941, 48.12751], [11.565899, 48.130783], [11.56775, 48.13364], [11.571846, 48.135147], [11.574855, 48.135086], [11.573858, 48.133114], [11.57508, 48.132298], [11.578386, 48.129917], [11.583021, 48.12661], [11.589201, 48.124588], [11.593298, 48.12337], [11.596038, 48.12351], [11.600197, 48.125626], [11.604329, 48.128296]]}}, {"type": "Feature", "properties": {"pattern_id": "e8be85a46a943f8b", "line": "68", "direction": "Hauptbahnhof Nord -> Hauptbahnhof Nord", "trip_count": 253}, "geometry": {"type": "LineString", "coordinates": [[11.561102, 48.141556], [11.55741, 48.13928], [11.55582, 48.13889], [11.556036, 48.13453], [11.557967, 48.133133], [11.55838, 48.130093], [11.558353, 48.126747], [11.561488, 48.125214], [11.567022, 48.123238], [11.57102, 48.121117], [11.575781, 48.11992], [11.576688, 48.12058], [11.578781, 48.12162], [11.581269, 48.123894], [11.583991, 48.1194], [11.585734, 48.121475], [11.590827, 48.122417], [11.596038, 48.12351], [11.600197, 48.125626], [11.603862, 48.127995], [11.609782, 48.132126], [11.609863, 48.135292], [11.606925, 48.13954], [11.606728, 48.144108], [11.608165, 48.14819], [11.608587, 48.1509], [11.600215, 48.14889], [11.596388, 48.150284], [11.594969, 48.15102], [11.593477, 48.15293], [11.588716, 48.15672], [11.5848, 48.157234], [11.583192, 48.15501], [11.581611, 48.151474], [11.580299, 48.14882], [11.576454, 48.147747], [11.57428, 48.148346], [11.571433, 48.149155], [11.566411, 48.14997], [11.564462, 48.146957], [11.560285, 48.145184], [11.561102, 48.141556]]}}, {"type": "Feature", "properties": {"pattern_id": "ec9fe7246f499687", "line": "132", "direction": "Marienplatz -> Implerstra\u00dfe", "trip_count": 57}, "geometry": {"type": "LineString", "coordinates": [[11.577784, 48.136417], [11.574855, 48.135086], [11.574694, 48.13408], [11.583767, 48.132736], [11.582545, 48.13111], [11.579428, 48.129494], [11.576688, 48.128197], [11.57075, 48.125732], [11.567022, 48.12378], [11.561381, 48.120583], [11.55556, 48.120426], [11.55229, 48.119785], [11.548858, 48.11939]]}}, {"type": "Feature", "properties": {"pattern_id": "ee2ab65b13a696a9", "line": "187", "direction": "Arabellapark -> Michaelibad", "trip_count": 79}, "geometry": {"type": "LineString", "coordinates": [[11.620786, 48.153316], [11.620948, 48.153816], [11.616887, 48.15397], [11.619555, 48.158], [11.621747, 48.16116], [11.621756, 48.16385], [11.623059, 48.165707], [11.621451, 48.16874], [11.617858, 48.16594], [11.615235, 48.162777], [11.611929, 48.15902], [11.608389, 48.155415], [11.605802, 48.152634], [11.602398, 48.15032], [11.601239, 48.148777], [11.60883, 48.150494], [11.616708, 48.148796], [11.622771, 48.148376], [11.625871, 48.14786], [11.628143, 48.146942], [11.627155, 48.14188], [11.628655, 48.13903], [11.635662, 48.140244], [11.6333, 48.13566], [11.632356, 48.132923], [11.631862, 48.130962], [11.631629, 48.127914], [11.634243, 48.126747], [11.632294, 48.123913], [11.630659, 48.1193]]}}, {"type": "Feature", "properties": {"pattern_id": "eee9b02856a9adb2", "line": "143", "direction": "Olympia-Einkaufszentrum -> H\u00f6rweg", "trip_count": 72}, "geometry": {"type": "LineString", "coordinates": [[11.529185, 48.181763], [11.528278, 48.176636], [11.520651, 48.17527], [11.51474, 48.173485], [11.510302, 48.169373], [11.509368, 48.167267], [11.506997, 48.164036], [11.5022, 48.164635], [11.494061, 48.16573], [11.486767, 48.163857], [11.478682, 48.16427], [11.473337, 48.164654], [11.466096, 48.16485], [11.462746, 48.164864], [11.456305, 48.164516], [11.455308, 48.16406], [11.452954, 48.16514], [11.447591, 48.164425], [11.442722, 48.163868], [11.435131, 48.163837], [11.432284, 48.16313], [11.423004, 48.161358], [11.420094, 48.160664], [11.415054, 48.159798], [11.415889, 48.156857], [11.413751, 48.153854], [11.409853, 48.15259], [11.406601, 48.152092]]}}, {"type": "Feature", "properties": {"pattern_id": "f6425eca25945f21", "line": "181", "direction": "Studentenstadt -> Wallnerstra\u00dfe", "trip_count": 167}, "geometry": {"type": "LineString", "coordinates": [[11.608875, 48.184467], [11.615756, 48.190117], [11.621532, 48.191483], [11.624038, 48.19082], [11.627443, 48.19011], [11.624811, 48.19081], [11.621433, 48.1918], [11.624299, 48.195583], [11.626499, 48.199062], [11.629671, 48.204346], [11.631314, 48.207027], [11.633515, 48.21053]]}}, {"type": "Feature", "properties": {"pattern_id": "f7c79d3cfe2f9f6b", "line": "173", "direction": "Feldmoching -> Petuelring", "trip_count": 139}, "geometry": {"type": "LineString", "coordinates": [[11.540495, 48.21354], [11.534844, 48.21466], [11.53055, 48.2148], [11.530559, 48.211224], [11.532796, 48.20871], [11.538815, 48.20397], [11.543549, 48.199986], [11.545777, 48.19641], [11.548957, 48.191265], [11.551921, 48.18547], [11.553934, 48.18254], [11.556557, 48.178658], [11.559575, 48.175884], [11.566465, 48.175312]]}}, {"type": "Feature", "properties": {"pattern_id": "fd8edb3f7f28da60", "line": "168", "direction": "Nymphenburg S\u00fcd -> Wastl-Witt-Stra\u00dfe", "trip_count": 300}, "geometry": {"type": "LineString", "coordinates": [[11.50246, 48.146362], [11.50281, 48.14315], [11.502963, 48.140297], [11.502819, 48.135944], [11.502739, 48.131947], [11.498184, 48.1315], [11.493899, 48.128925], [11.489003, 48.130104], [11.482455, 48.13013], [11.479526, 48.12956], [11.474253, 48.128258], [11.470318, 48.128067], [11.469609, 48.1266]]}}]}